*******************************************************************************
Ephemeris / WWW_USER Fri Mar  7 10:47:16 2025 Pasadena, USA      / Horizons    
*******************************************************************************
Target body name: (2018 TS1)                      {source: JPL#6}
Center body name: Earth (399)                     {source: DE441}
Center-site name: Mauna Kea
*******************************************************************************
Start time      : A.D. 2018-Dec-22 03:58:00.0000 UT      
Stop  time      : A.D. 2018-Dec-22 16:42:00.0000 UT      
Step-size       : 1 minutes
*******************************************************************************
Target pole/equ : undefined
Target radii    : undefined                                                    
Center geodetic : 204.5278, 19.8260847, 4.21024   {E-lon(deg),Lat(deg),Alt(km)}
Center cylindric: 204.5278, 6006.35451, 2151.0229 {E-lon(deg),Dxy(km),Dz(km)}
Center pole/equ : ITRF93                          {East-longitude positive}
Center radii    : 6378.137, 6378.137, 6356.752 km {Equator_a, b, pole_c}       
Target primary  : Sun
Vis. interferer : MOON (R_eq= 1737.400) km        {source: DE441}
Rel. light bend : Sun                             {source: DE441}
Rel. lght bnd GM: 1.3271E+11 km^3/s^2                                          
Small-body perts: Yes                             {source: SB441-N16}
Atmos refraction: NO (AIRLESS)
RA format       : HMS
Time format     : CAL 
Calendar mode   : Mixed Julian/Gregorian
RTS-only print  : NO       
EOP file        : eop.250306.p250602                                           
EOP coverage    : DATA-BASED 1962-JAN-20 TO 2025-MAR-06. PREDICTS-> 2025-JUN-01
Units conversion: 1 au= 149597870.700 km, c= 299792.458 km/s, 1 day= 86400.0 s 
Table cut-offs 1: Elevation (-90.0deg=NO ),Airmass (>38.000=NO), Daylight (YES)
Table cut-offs 2: Solar elongation (  0.0,180.0=NO ),Local Hour Angle( 0.0=NO )
Table cut-offs 3: RA/DEC angular rate (     0.0=NO )                           
*******************************************************************************
Initial IAU76/J2000 heliocentric ecliptic osculating elements (au, days, deg.):
  EPOCH=  2458397.5 ! 2018-Oct-06.00 (TDB)         Residual RMS= .30565        
   EC= .4232280089037878   QR= .7951431742456924   TP= 2458457.9340165281      
   OM= 356.454891650426    W=  97.01949783285009   IN= 2.243887958983723       
  Equivalent ICRF heliocentric cartesian coordinates (au, au/d):
   X= 1.037748414669454E+00  Y= 2.036665248544260E-01  Z= 1.007134111375925E-01
  VX=-1.028941390482545E-02 VY= 1.387292408111162E-02 VZ= 6.642652492995660E-03
Asteroid physical parameters (km, seconds, rotational period in hours):        
   GM= n.a.                RAD= n.a.               ROTPER= n.a.                
   H= 25.7                 G= .150                 B-V= n.a.                   
                           ALBEDO= n.a.            STYP= n.a.                  
*******************************************************************************
 Date__(UT)__HR:MN     R.A._________(ICRF)_________DEC
******************************************************
$$SOE
 2018-Dec-22 08:04  m  14 09 19.869909 -09 55 55.21976
 2018-Dec-22 08:05  m  14 09 19.966744 -09 55 55.94569
 2018-Dec-22 08:06  m  14 09 20.063571 -09 55 56.67166
 2018-Dec-22 08:07  m  14 09 20.160390 -09 55 57.39768
 2018-Dec-22 08:08  m  14 09 20.257200 -09 55 58.12375
 2018-Dec-22 08:09  m  14 09 20.354001 -09 55 58.84986
 2018-Dec-22 08:10  m  14 09 20.450794 -09 55 59.57602
 2018-Dec-22 08:11  m  14 09 20.547578 -09 56 00.30222
 2018-Dec-22 08:12  m  14 09 20.644354 -09 56 01.02848
 2018-Dec-22 08:13  m  14 09 20.741121 -09 56 01.75477
 2018-Dec-22 08:14  m  14 09 20.837879 -09 56 02.48112
 2018-Dec-22 08:15  m  14 09 20.934628 -09 56 03.20751
 2018-Dec-22 08:16  m  14 09 21.031367 -09 56 03.93394
 2018-Dec-22 08:17  m  14 09 21.128098 -09 56 04.66042
 2018-Dec-22 08:18  m  14 09 21.224820 -09 56 05.38695
 2018-Dec-22 08:19  m  14 09 21.321532 -09 56 06.11352
 2018-Dec-22 08:20  m  14 09 21.418234 -09 56 06.84014
 2018-Dec-22 08:21  m  14 09 21.514928 -09 56 07.56680
 2018-Dec-22 08:22  m  14 09 21.611611 -09 56 08.29351
 2018-Dec-22 08:23  m  14 09 21.708285 -09 56 09.02026
 2018-Dec-22 08:24  m  14 09 21.804950 -09 56 09.74706
 2018-Dec-22 08:25  m  14 09 21.901604 -09 56 10.47390
 2018-Dec-22 08:26  m  14 09 21.998249 -09 56 11.20078
 2018-Dec-22 08:27  m  14 09 22.094884 -09 56 11.92772
 2018-Dec-22 08:28  m  14 09 22.191508 -09 56 12.65469
 2018-Dec-22 08:29  m  14 09 22.288123 -09 56 13.38171
 2018-Dec-22 08:30  m  14 09 22.384727 -09 56 14.10877
 2018-Dec-22 08:31  m  14 09 22.481321 -09 56 14.83588
 2018-Dec-22 08:32  m  14 09 22.577905 -09 56 15.56303
 2018-Dec-22 08:33  m  14 09 22.674478 -09 56 16.29023
 2018-Dec-22 08:34  m  14 09 22.771041 -09 56 17.01747
 2018-Dec-22 08:35  m  14 09 22.867593 -09 56 17.74475
 2018-Dec-22 08:36  m  14 09 22.964134 -09 56 18.47208
 2018-Dec-22 08:37  m  14 09 23.060665 -09 56 19.19945
 2018-Dec-22 08:38  m  14 09 23.157185 -09 56 19.92686
 2018-Dec-22 08:39  m  14 09 23.253693 -09 56 20.65431
 2018-Dec-22 08:40  m  14 09 23.350191 -09 56 21.38181
 2018-Dec-22 08:41  m  14 09 23.446678 -09 56 22.10935
 2018-Dec-22 08:42  m  14 09 23.543154 -09 56 22.83694
 2018-Dec-22 08:43  m  14 09 23.639618 -09 56 23.56457
 2018-Dec-22 08:44  m  14 09 23.736071 -09 56 24.29223
 2018-Dec-22 08:45  m  14 09 23.832513 -09 56 25.01995
 2018-Dec-22 08:46  m  14 09 23.928944 -09 56 25.74770
 2018-Dec-22 08:47  m  14 09 24.025362 -09 56 26.47549
 2018-Dec-22 08:48  m  14 09 24.121770 -09 56 27.20333
 2018-Dec-22 08:49  m  14 09 24.218165 -09 56 27.93121
 2018-Dec-22 08:50  m  14 09 24.314549 -09 56 28.65913
 2018-Dec-22 08:51  m  14 09 24.410921 -09 56 29.38709
 2018-Dec-22 08:52  m  14 09 24.507281 -09 56 30.11510
 2018-Dec-22 08:53  m  14 09 24.603629 -09 56 30.84314
 2018-Dec-22 08:54  m  14 09 24.699964 -09 56 31.57123
 2018-Dec-22 08:55  m  14 09 24.796288 -09 56 32.29935
 2018-Dec-22 08:56  m  14 09 24.892600 -09 56 33.02752
 2018-Dec-22 08:57  m  14 09 24.988899 -09 56 33.75573
 2018-Dec-22 08:58  m  14 09 25.085186 -09 56 34.48398
 2018-Dec-22 08:59  m  14 09 25.181461 -09 56 35.21227
 2018-Dec-22 09:00  m  14 09 25.277723 -09 56 35.94059
 2018-Dec-22 09:01  m  14 09 25.373972 -09 56 36.66896
 2018-Dec-22 09:02  m  14 09 25.470209 -09 56 37.39737
 2018-Dec-22 09:03  m  14 09 25.566433 -09 56 38.12582
 2018-Dec-22 09:04  m  14 09 25.662644 -09 56 38.85431
 2018-Dec-22 09:05  m  14 09 25.758843 -09 56 39.58284
 2018-Dec-22 09:06  m  14 09 25.855028 -09 56 40.31140
 2018-Dec-22 09:07  m  14 09 25.951200 -09 56 41.04001
 2018-Dec-22 09:08  m  14 09 26.047360 -09 56 41.76865
 2018-Dec-22 09:09  m  14 09 26.143506 -09 56 42.49734
 2018-Dec-22 09:10  m  14 09 26.239639 -09 56 43.22606
 2018-Dec-22 09:11  m  14 09 26.335759 -09 56 43.95482
 2018-Dec-22 09:12  m  14 09 26.431865 -09 56 44.68362
 2018-Dec-22 09:13  m  14 09 26.527958 -09 56 45.41246
 2018-Dec-22 09:14  m  14 09 26.624037 -09 56 46.14133
 2018-Dec-22 09:15  m  14 09 26.720103 -09 56 46.87025
 2018-Dec-22 09:16  m  14 09 26.816155 -09 56 47.59920
 2018-Dec-22 09:17  m  14 09 26.912194 -09 56 48.32819
 2018-Dec-22 09:18  m  14 09 27.008219 -09 56 49.05721
 2018-Dec-22 09:19  m  14 09 27.104229 -09 56 49.78628
 2018-Dec-22 09:20  m  14 09 27.200226 -09 56 50.51538
 2018-Dec-22 09:21  m  14 09 27.296209 -09 56 51.24452
 2018-Dec-22 09:22  m  14 09 27.392178 -09 56 51.97369
 2018-Dec-22 09:23  m  14 09 27.488133 -09 56 52.70290
 2018-Dec-22 09:24  m  14 09 27.584074 -09 56 53.43215
 2018-Dec-22 09:25  m  14 09 27.680000 -09 56 54.16143
 2018-Dec-22 09:26  m  14 09 27.775912 -09 56 54.89075
 2018-Dec-22 09:27  m  14 09 27.871810 -09 56 55.62011
 2018-Dec-22 09:28  m  14 09 27.967693 -09 56 56.34950
 2018-Dec-22 09:29  m  14 09 28.063562 -09 56 57.07893
 2018-Dec-22 09:30  m  14 09 28.159416 -09 56 57.80839
 2018-Dec-22 09:31  m  14 09 28.255255 -09 56 58.53789
 2018-Dec-22 09:32  m  14 09 28.351080 -09 56 59.26743
 2018-Dec-22 09:33  m  14 09 28.446890 -09 56 59.99699
 2018-Dec-22 09:34  m  14 09 28.542685 -09 57 00.72660
 2018-Dec-22 09:35  m  14 09 28.638465 -09 57 01.45623
 2018-Dec-22 09:36  m  14 09 28.734231 -09 57 02.18591
 2018-Dec-22 09:37  m  14 09 28.829981 -09 57 02.91561
 2018-Dec-22 09:38  m  14 09 28.925716 -09 57 03.64535
 2018-Dec-22 09:39  m  14 09 29.021436 -09 57 04.37513
 2018-Dec-22 09:40  m  14 09 29.117141 -09 57 05.10494
 2018-Dec-22 09:41  m  14 09 29.212830 -09 57 05.83478
 2018-Dec-22 09:42  m  14 09 29.308505 -09 57 06.56465
 2018-Dec-22 09:43  m  14 09 29.404163 -09 57 07.29456
 2018-Dec-22 09:44  m  14 09 29.499807 -09 57 08.02450
 2018-Dec-22 09:45  m  14 09 29.595435 -09 57 08.75448
 2018-Dec-22 09:46  m  14 09 29.691047 -09 57 09.48449
 2018-Dec-22 09:47  m  14 09 29.786643 -09 57 10.21452
 2018-Dec-22 09:48  m  14 09 29.882224 -09 57 10.94460
 2018-Dec-22 09:49  m  14 09 29.977790 -09 57 11.67470
 2018-Dec-22 09:50  m  14 09 30.073339 -09 57 12.40484
 2018-Dec-22 09:51  m  14 09 30.168872 -09 57 13.13500
 2018-Dec-22 09:52  m  14 09 30.264390 -09 57 13.86520
 2018-Dec-22 09:53  m  14 09 30.359891 -09 57 14.59543
 2018-Dec-22 09:54  m  14 09 30.455377 -09 57 15.32570
 2018-Dec-22 09:55  m  14 09 30.550846 -09 57 16.05599
 2018-Dec-22 09:56  m  14 09 30.646299 -09 57 16.78631
 2018-Dec-22 09:57  m  14 09 30.741736 -09 57 17.51667
 2018-Dec-22 09:58  m  14 09 30.837157 -09 57 18.24705
 2018-Dec-22 09:59  m  14 09 30.932561 -09 57 18.97747
 2018-Dec-22 10:00  m  14 09 31.027949 -09 57 19.70791
 2018-Dec-22 10:01  m  14 09 31.123321 -09 57 20.43839
 2018-Dec-22 10:02  m  14 09 31.218676 -09 57 21.16889
 2018-Dec-22 10:03  m  14 09 31.314014 -09 57 21.89943
 2018-Dec-22 10:04  m  14 09 31.409336 -09 57 22.62999
 2018-Dec-22 10:05  m  14 09 31.504641 -09 57 23.36058
 2018-Dec-22 10:06  m  14 09 31.599929 -09 57 24.09121
